start=new Date('2021-10-29T00:00:00.000Z').valueOf();
sats=[{"FILE":"3189402","CLASSIFICATION_TYPE":"U","REF_FRAME":"TEME","OBJECT_TYPE":"PAYLOAD","TLE_LINE1":"1 48683U 21044AX  21301.91667824 -.00052419  00000-0 -35249-2 0  9998","GP_ID":"188368394","SITE":"AFETR","MEAN_ELEMENT_THEORY":"SGP4","ARG_OF_PERICENTER":"54.1887","MEAN_MOTION_DOT":"-0.00052419","EPHEMERIS_TYPE":"0","DECAY_DATE":null,"ECCENTRICITY":"0.00016220","TLE_LINE2":"2 48683  53.0526  21.8422 0001622  54.1887 114.1141 15.06413406  3618","RA_OF_ASC_NODE":"21.8422","MEAN_MOTION_DDOT":"0.0000000000000","OBJECT_ID":"2021-044AX","REV_AT_EPOCH":"361","MEAN_MOTION":"15.06413406","TIME_SYSTEM":"UTC","PERIAPSIS":"546.049","CENTER_NAME":"EARTH","RCS_SIZE":"LARGE","INCLINATION":"53.0526","APOAPSIS":"548.296","ELEMENT_SET_NO":"999","COUNTRY_CODE":"US","OBJECT_NAME":"STARLINK-2756","NORAD_CAT_ID":"48683","LAUNCH_DATE":"2021-05-26","MEAN_ANOMALY":"114.1141","SEMIMAJOR_AXIS":"6925.307","EPOCH":"2021-10-28T22:00:00.999936","PERIOD":"95.591","BSTAR":"-0.00352490000000"},{"ARG_OF_PERICENTER":"74.4308","MEAN_ELEMENT_THEORY":"SGP4","SITE":"AFETR","GP_ID":"188368981","TLE_LINE1":"1 48684U 21044AY  21301.54335611 -.00000982  00000-0 -47025-4 0  9999","CLASSIFICATION_TYPE":"U","REF_FRAME":"TEME","OBJECT_TYPE":"PAYLOAD","FILE":"3189402","REV_AT_EPOCH":"2407","MEAN_MOTION_DDOT":"0.0000000000000","TLE_LINE2":"2 48684  53.0570  38.5174 0001264  74.4308 285.6820 15.06396640 24073","RA_OF_ASC_NODE":"38.5174","OBJECT_ID":"2021-044AY","DECAY_DATE":null,"ECCENTRICITY":"0.00012640","EPHEMERIS_TYPE":"0","MEAN_MOTION_DOT":"-0.00000982","OBJECT_NAME":"STARLINK-2741","NORAD_CAT_ID":"48684","ELEMENT_SET_NO":"999","COUNTRY_CODE":"US","INCLINATION":"53.0570","APOAPSIS":"548.099","CENTER_NAME":"EARTH","PERIAPSIS":"546.348","RCS_SIZE":"LARGE","TIME_SYSTEM":"UTC","MEAN_MOTION":"15.06396640","BSTAR":"-0.00004702500000","PERIOD":"95.592","EPOCH":"2021-10-28T13:02:25.967904","SEMIMAJOR_AXIS":"6925.359","MEAN_ANOMALY":"285.6820","LAUNCH_DATE":"2021-05-26"},{"MEAN_ELEMENT_THEORY":"SGP4","SITE":"AFETR","ARG_OF_PERICENTER":"47.4529","CLASSIFICATION_TYPE":"U","OBJECT_TYPE":"PAYLOAD","REF_FRAME":"TEME","FILE":"3189402","TLE_LINE1":"1 48685U 21044AZ  21301.91667824 -.00074451  00000-0 -50274-2 0  9995","GP_ID":"188368511","DECAY_DATE":null,"ECCENTRICITY":"0.00017050","REV_AT_EPOCH":"361","MEAN_MOTION_DDOT":"0.0000000000000","TLE_LINE2":"2 48685  53.0541  21.8355 0001705  47.4529 300.8120 15.06432237  3616","RA_OF_ASC_NODE":"21.8355","OBJECT_ID":"2021-044AZ","MEAN_MOTION_DOT":"-0.00074451","EPHEMERIS_TYPE":"0","ELEMENT_SET_NO":"999","COUNTRY_CODE":"US","OBJECT_NAME":"STARLINK-2751","NORAD_CAT_ID":"48685","TIME_SYSTEM":"UTC","MEAN_MOTION":"15.06432237","INCLINATION":"53.0541","APOAPSIS":"548.296","CENTER_NAME":"EARTH","PERIAPSIS":"545.934","RCS_SIZE":"LARGE","PERIOD":"95.590","EPOCH":"2021-10-28T22:00:00.999936","SEMIMAJOR_AXIS":"6925.250","BSTAR":"-0.00502740000000","LAUNCH_DATE":"2021-05-26","MEAN_ANOMALY":"300.8120"},{"FILE":"3189402","CLASSIFICATION_TYPE":"U","OBJECT_TYPE":"PAYLOAD","REF_FRAME":"TEME","GP_ID":"188369207","TLE_LINE1":"1 48686U 21044BA  21301.91667824 -.00027461  00000-0 -18314-2 0  9994","SITE":"AFETR","MEAN_ELEMENT_THEORY":"SGP4","ARG_OF_PERICENTER":"82.1732","MEAN_MOTION_DOT":"-0.00027461","EPHEMERIS_TYPE":"0","DECAY_DATE":null,"ECCENTRICITY":"0.00012180","MEAN_MOTION_DDOT":"0.0000000000000","TLE_LINE2":"2 48686  53.0537  26.8418 0001218  82.1732  58.5790 15.06408303  3581","RA_OF_ASC_NODE":"26.8418","OBJECT_ID":"2021-044BA","REV_AT_EPOCH":"358","MEAN_MOTION":"15.06408303","TIME_SYSTEM":"UTC","CENTER_NAME":"EARTH","PERIAPSIS":"546.345","RCS_SIZE":"LARGE","INCLINATION":"53.0537","APOAPSIS":"548.032","ELEMENT_SET_NO":"999","COUNTRY_CODE":"US","OBJECT_NAME":"STARLINK-2629","NORAD_CAT_ID":"48686","LAUNCH_DATE":"2021-05-26","MEAN_ANOMALY":"58.5790","SEMIMAJOR_AXIS":"6925.323","EPOCH":"2021-10-28T22:00:00.999936","PERIOD":"95.592","BSTAR":"-0.00183140000000"},{"OBJECT_NAME":"STARLINK-2627","NORAD_CAT_ID":"48687","ELEMENT_SET_NO":"999","COUNTRY_CODE":"US","CENTER_NAME":"EARTH","PERIAPSIS":"485.119","RCS_SIZE":"LARGE","INCLINATION":"53.0461","APOAPSIS":"487.253","MEAN_MOTION":"15.26533621","TIME_SYSTEM":"UTC","BSTAR":"-0.03821400000000","SEMIMAJOR_AXIS":"6864.321","PERIOD":"94.331","EPOCH":"2021-10-28T22:00:00.999936","MEAN_ANOMALY":"72.0963","LAUNCH_DATE":"2021-05-26","ARG_OF_PERICENTER":"49.2010","SITE":"AFETR","MEAN_ELEMENT_THEORY":"SGP4","TLE_LINE1":"1 48687U 21044BB  21301.91667824 -.00937247  00000-0 -38214-1 0  9997","GP_ID":"188368749","FILE":"3189402","CLASSIFICATION_TYPE":"U","REF_FRAME":"TEME","OBJECT_TYPE":"PAYLOAD","RA_OF_ASC_NODE":"17.5494","TLE_LINE2":"2 48687  53.0461  17.5494 0001554  49.2010  72.0963 15.26533621  3649","MEAN_MOTION_DDOT":"0.0000000000000","OBJECT_ID":"2021-044BB","REV_AT_EPOCH":"364","DECAY_DATE":null,"ECCENTRICITY":"0.00015540","EPHEMERIS_TYPE":"0","MEAN_MOTION_DOT":"-0.00937247"},{"LAUNCH_DATE":"2021-05-26","MEAN_ANOMALY":"57.1078","SEMIMAJOR_AXIS":"6864.837","PERIOD":"94.342","EPOCH":"2021-10-28T22:00:00.999936","BSTAR":"-0.03840500000000","MEAN_MOTION":"15.26361515","TIME_SYSTEM":"UTC","PERIAPSIS":"485.658","CENTER_NAME":"EARTH","RCS_SIZE":"LARGE","INCLINATION":"53.0451","APOAPSIS":"487.746","ELEMENT_SET_NO":"999","COUNTRY_CODE":"US","OBJECT_NAME":"STARLINK-2742","NORAD_CAT_ID":"48688","MEAN_MOTION_DOT":"-0.00937025","EPHEMERIS_TYPE":"0","DECAY_DATE":null,"ECCENTRICITY":"0.00015210","RA_OF_ASC_NODE":"17.5391","TLE_LINE2":"2 48688  53.0451  17.5391 0001521  50.3577  57.1078 15.26361515  3642","MEAN_MOTION_DDOT":"0.0000000000000","OBJECT_ID":"2021-044BC","REV_AT_EPOCH":"364","FILE":"3189402","CLASSIFICATION_TYPE":"U","REF_FRAME":"TEME","OBJECT_TYPE":"PAYLOAD","GP_ID":"188368628","TLE_LINE1":"1 48688U 21044BC  21301.91667824 -.00937025  00000-0 -38405-1 0  9994","SITE":"AFETR","MEAN_ELEMENT_THEORY":"SGP4","ARG_OF_PERICENTER":"50.3577"},{"ARG_OF_PERICENTER":"75.8870","MEAN_ELEMENT_THEORY":"SGP4","SITE":"AFETR","GP_ID":"188368865","TLE_LINE1":"1 48689U 21044BD  21301.91667824 -.00918329  00000-0 -60802-1 0  9997","CLASSIFICATION_TYPE":"U","REF_FRAME":"TEME","OBJECT_TYPE":"PAYLOAD","FILE":"3189402","REV_AT_EPOCH":"361","RA_OF_ASC_NODE":"20.8878","TLE_LINE2":"2 48689  53.0423  20.8878 0001472  75.8870 127.8546 15.09765516  3614","MEAN_MOTION_DDOT":"0.0000000000000","OBJECT_ID":"2021-044BD","DECAY_DATE":null,"ECCENTRICITY":"0.00014720","EPHEMERIS_TYPE":"0","MEAN_MOTION_DOT":"-0.00918329","OBJECT_NAME":"STARLINK-2617","NORAD_CAT_ID":"48689","ELEMENT_SET_NO":"999","COUNTRY_CODE":"US","INCLINATION":"53.0423","APOAPSIS":"537.936","PERIAPSIS":"535.900","CENTER_NAME":"EARTH","RCS_SIZE":"LARGE","TIME_SYSTEM":"UTC","MEAN_MOTION":"15.09765516","BSTAR":"-0.06080200000000","EPOCH":"2021-10-28T22:00:00.999936","PERIOD":"95.379","SEMIMAJOR_AXIS":"6915.053","MEAN_ANOMALY":"127.8546","LAUNCH_DATE":"2021-05-26"},{"ELEMENT_SET_NO":"999","COUNTRY_CODE":"US","OBJECT_NAME":"STARLINK-2740","NORAD_CAT_ID":"48690","TIME_SYSTEM":"UTC","MEAN_MOTION":"15.06401386","INCLINATION":"53.0530","APOAPSIS":"548.342","PERIAPSIS":"546.076","CENTER_NAME":"EARTH","RCS_SIZE":"LARGE","PERIOD":"95.592","EPOCH":"2021-10-28T22:00:00.999936","SEMIMAJOR_AXIS":"6925.344","BSTAR":"-0.00199330000000","LAUNCH_DATE":"2021-05-26","MEAN_ANOMALY":"345.9886","MEAN_ELEMENT_THEORY":"SGP4","SITE":"AFETR","ARG_OF_PERICENTER":"62.1498","CLASSIFICATION_TYPE":"U","OBJECT_TYPE":"PAYLOAD","REF_FRAME":"TEME","FILE":"3189402","GP_ID":"188369095","TLE_LINE1":"1 48690U 21044BE  21301.91667824 -.00029849  00000-0 -19933-2 0  9999","DECAY_DATE":null,"ECCENTRICITY":"0.00016360","REV_AT_EPOCH":"357","TLE_LINE2":"2 48690  53.0530  31.8452 0001636  62.1498 345.9886 15.06401386  3576","RA_OF_ASC_NODE":"31.8452","MEAN_MOTION_DDOT":"0.0000000000000","OBJECT_ID":"2021-044BE","MEAN_MOTION_DOT":"-0.00029849","EPHEMERIS_TYPE":"0"},{"TLE_LINE1":"1 48691U 21044BF  21301.91667824 -.00027873  00000-0 -18594-2 0  9997","GP_ID":"188368395","FILE":"3189402","OBJECT_TYPE":"PAYLOAD","REF_FRAME":"TEME","CLASSIFICATION_TYPE":"U","ARG_OF_PERICENTER":"85.0757","SITE":"AFETR","MEAN_ELEMENT_THEORY":"SGP4","EPHEMERIS_TYPE":"0","MEAN_MOTION_DOT":"-0.00027873","OBJECT_ID":"2021-044BF","MEAN_MOTION_DDOT":"0.0000000000000","TLE_LINE2":"2 48691  53.0532  26.8399 0001228  85.0757  75.6665 15.06405918  3580","RA_OF_ASC_NODE":"26.8399","REV_AT_EPOCH":"358","ECCENTRICITY":"0.00012280","DECAY_DATE":null,"RCS_SIZE":"LARGE","PERIAPSIS":"546.345","CENTER_NAME":"EARTH","APOAPSIS":"548.046","INCLINATION":"53.0532","MEAN_MOTION":"15.06405918","TIME_SYSTEM":"UTC","NORAD_CAT_ID":"48691","OBJECT_NAME":"STARLINK-2750","COUNTRY_CODE":"US","ELEMENT_SET_NO":"999","MEAN_ANOMALY":"75.6665","LAUNCH_DATE":"2021-05-26","BSTAR":"-0.00185940000000","SEMIMAJOR_AXIS":"6925.330","PERIOD":"95.592","EPOCH":"2021-10-28T22:00:00.999936"},{"SITE":"AFETR","MEAN_ELEMENT_THEORY":"SGP4","ARG_OF_PERICENTER":"56.1096","FILE":"3189402","REF_FRAME":"TEME","OBJECT_TYPE":"PAYLOAD","CLASSIFICATION_TYPE":"U","TLE_LINE1":"1 48692U 21044BG  21301.91667824 -.00072519  00000-0 -48962-2 0  9997","GP_ID":"188368982","ECCENTRICITY":"0.00016350","DECAY_DATE":null,"OBJECT_ID":"2021-044BG","RA_OF_ASC_NODE":"26.8439","TLE_LINE2":"2 48692  53.0543  26.8439 0001635  56.1096 284.6490 15.06424237  3588","MEAN_MOTION_DDOT":"0.0000000000000","REV_AT_EPOCH":"358","MEAN_MOTION_DOT":"-0.00072519","EPHEMERIS_TYPE":"0","COUNTRY_CODE":"US","ELEMENT_SET_NO":"999","NORAD_CAT_ID":"48692","OBJECT_NAME":"STARLINK-2752","MEAN_MOTION":"15.06424237","TIME_SYSTEM":"UTC","RCS_SIZE":"LARGE","CENTER_NAME":"EARTH","PERIAPSIS":"546.007","APOAPSIS":"548.272","INCLINATION":"53.0543","SEMIMAJOR_AXIS":"6925.274","PERIOD":"95.591","EPOCH":"2021-10-28T22:00:00.999936","BSTAR":"-0.00489620000000","LAUNCH_DATE":"2021-05-26","MEAN_ANOMALY":"284.6490"}];
